{
    "links": {
        "self": "http://www.neowsapp.com/rest/v1/neo/3831874?api_key=iIulBulltgU6a56xZRHN4H3l9WmuAYTsLGpBGhQ2"
    },
    "id": "3831874",
    "neo_reference_id": "3831874",
    "name": "(2018 UG)",
    "designation": "2018 UG",
    "nasa_jpl_url": "http://ssd.jpl.nasa.gov/sbdb.cgi?sstr=3831874",
    "absolute_magnitude_h": 25.9,
    "estimated_diameter": {
        "kilometers": {
            "estimated_diameter_min": 0.0175612318,
            "estimated_diameter_max": 0.0392681082
        },
        "meters": {
            "estimated_diameter_min": 17.561231848,
            "estimated_diameter_max": 39.2681081809
        },
        "miles": {
            "estimated_diameter_min": 0.0109120402,
            "estimated_diameter_max": 0.0244000636
        },
        "feet": {
            "estimated_diameter_min": 57.6155918963,
            "estimated_diameter_max": 128.8323800441
        }
    },
    "is_potentially_hazardous_asteroid": false,
    "close_approach_data": [
        {
            "close_approach_date": "2018-10-14",
            "close_approach_date_full": "2018-Oct-14 22:35",
            "epoch_date_close_approach": 1539556500000,
            "relative_velocity": {
                "kilometers_per_second": "7.578948807",
                "kilometers_per_hour": "27284.2157053531",
                "miles_per_hour": "16953.3505864735"
            },
            "miss_distance": {
                "astronomical": "0.0241208974",
                "lunar": "9.3830290886",
                "kilometers": "3608434.873528538",
                "miles": "2242177.4592603044"
            },
            "orbiting_body": "Earth"
        }
    ],
    "orbital_data": {
        "orbit_id": "1",
        "orbit_determination_date": "2018-10-19 08:42:08",
        "first_observation_date": "2018-10-17",
        "last_observation_date": "2018-10-19",
        "data_arc_in_days": 2,
        "observations_used": 23,
        "orbit_uncertainty": "8",
        "minimum_orbit_intersection": ".0117125",
        "jupiter_tisserand_invariant": "3.465",
        "epoch_osculation": "2458409.5",
        "eccentricity": ".5384028783587144",
        "semi_major_axis": "2.192298324678895",
        "inclination": "3.916305323324544",
        "ascending_node_longitude": "11.53265199899276",
        "orbital_period": "1185.626519530018",
        "perihelion_distance": "1.011958596450791",
        "perihelion_argument": ".9611277980792874",
        "aphelion_distance": "3.372638052907",
        "perihelion_time": "2458399.639986011967",
        "mean_anomaly": "2.993864406051698",
        "mean_motion": ".3036369329379575",
        "equinox": "J2000",
        "orbit_class": {
            "orbit_class_type": "APO",
            "orbit_class_description": "Near-Earth asteroid orbits which cross the Earth’s orbit similar to that of 1862 Apollo",
            "orbit_class_range": "a (semi-major axis) > 1.0 AU; q (perihelion) < 1.017 AU"
        }
    },
    "is_sentry_object": false
}